NORAD_CAT_ID,OBJECT_NAME,OBJECT_TYPE,EPOCH,MEAN_MOTION,ECCENTRICITY,INCLINATION,RA_OF_ASC_NODE,ARG_OF_PERICENTER,MEAN_ANOMALY,BSTAR,MEAN_MOTION_DOT,MEAN_MOTION_DDOT,TLE_LINE0,TLE_LINE1,TLE_LINE2,SEMIMAJOR_AXIS,PERIOD,APOGEE,PERIGEE,DECAYED
53014.0,STARLINK-4183,PAYLOAD,2024-04-07 22:55:11,15.08838308,0.0001559,53.2189,349.8404,88.3654,271.7517,0.00013807,1.91e-05,0.0,0 STARLINK-4183,1 53014U 22076AE  24098.95499331  .00001910  00000-0  13807-3 0  9999,2 53014  53.2189 349.8404 0001559  88.3654 271.7517 15.08838308 97199,6917.886,95.438,540.829,538.672,0.0
53014.0,STARLINK-4183,PAYLOAD,2024-04-08 10:02:52,15.08849759,0.0001512,53.2182,347.7587,81.9657,278.1506,0.00016848,2.395e-05,0.0,0 STARLINK-4183,1 53014U 22076AE  24099.41866646  .00002395  00000-0  16848-3 0  9994,2 53014  53.2182 347.7587 0001512  81.9657 278.1506 15.08849759 97733,6917.851,95.437,540.762,538.67,0.0
53014.0,STARLINK-4183,PAYLOAD,2024-04-08 22:45:58,15.08842309,0.0001669,53.219,345.3788,92.0916,268.0267,0.00018963,2.731e-05,0.0,0 STARLINK-4183,1 53014U 22076AE  24099.94859132  .00002731  00000-0  18963-3 0  9998,2 53014  53.2190 345.3788 0001669  92.0916 268.0267 15.08842309 97346,6917.873,95.437,540.893,538.584,0.0
53014.0,STARLINK-4183,PAYLOAD,2024-04-09 01:56:44,15.08844604,0.0001623,53.2203,344.7839,89.0632,271.0546,8.353e-05,1.042e-05,0.0,0 STARLINK-4183,1 53014U 22076AE  24100.08107039  .00001042  00000-0  83530-4 0  9995,2 53014  53.2203 344.7839 0001623  89.0632 271.0546 15.08844604 97830,6917.866,95.437,540.854,538.609,0.0
53014.0,STARLINK-4183,PAYLOAD,2024-04-09 09:53:40,15.0884584,0.0001597,53.221,343.2963,89.0286,271.089,6.8581e-05,8.04e-06,0.0,0 STARLINK-4183,1 53014U 22076AE  24100.41226891  .00000804  00000-0  68581-4 0  9994,2 53014  53.2210 343.2963 0001597  89.0286 271.0890 15.08845840 97414,6917.863,95.437,540.832,538.623,0.0
53014.0,STARLINK-4183,PAYLOAD,2024-04-09 22:36:45,15.08842632,0.0001944,53.2177,340.9186,87.2088,272.9127,0.00013477,1.858e-05,0.0,0 STARLINK-4183,1 53014U 22076AE  24100.94219060  .00001858  00000-0  13477-3 0  9995,2 53014  53.2177 340.9186 0001944  87.2088 272.9127 15.08842632 97490,6917.872,95.437,541.082,538.393,0.0
53014.0,STARLINK-4183,PAYLOAD,2024-04-10 20:52:08,15.08866327,0.0001776,53.2192,336.7547,120.0088,240.1081,0.00049202,7.557e-05,0.0,0 STARLINK-4183,1 53014U 22076AE  24101.86954195  .00007557  00000-0  49202-3 0  9999,2 53014  53.2192 336.7547 0001776 120.0088 240.1081 15.08866327 98102,6917.8,95.436,540.894,538.436,0.0
53014.0,STARLINK-4183,PAYLOAD,2024-04-10 22:27:31,15.08870453,0.0001217,53.2181,336.4577,81.3743,278.7387,0.00057389,8.865e-05,0.0,0 STARLINK-4183,1 53014U 22076AE  24101.93578112  .00008865  00000-0  57389-3 0  9996,2 53014  53.2181 336.4577 0001217  81.3743 278.7387 15.08870453 97646,6917.787,95.436,540.494,538.81,0.0
53014.0,STARLINK-4183,PAYLOAD,2024-04-11 07:59:49,15.08884605,0.0001232,53.2186,334.674,80.6536,279.4595,0.00064735,0.00010042,0.0,0 STARLINK-4183,1 53014U 22076AE  24102.33320632  .00010042  00000-0  64735-3 0  9996,2 53014  53.2186 334.6740 0001232  80.6536 279.4595 15.08884605 98174,6917.744,95.435,540.461,538.757,0.0
53014.0,STARLINK-4183,PAYLOAD,2024-04-11 20:42:55,15.08845327,0.0001414,53.2184,332.296,86.7455,273.3699,9.4575e-05,1.218e-05,0.0,0 STARLINK-4183,1 53014U 22076AE  24102.86313854  .00001218  00000-0  94575-4 0  9993,2 53014  53.2184 332.2960 0001414  86.7455 273.3699 15.08845327 98254,6917.864,95.437,540.707,538.751,0.0
53014.0,STARLINK-4183,PAYLOAD,2024-04-11 22:18:18,15.08849542,0.0001358,53.2182,332.0007,87.6846,272.4302,0.00014457,2.014e-05,0.0,0 STARLINK-4183,1 53014U 22076AE  24102.92937612  .00002014  00000-0  14457-3 0  9999,2 53014  53.2182 332.0007 0001358  87.6846 272.4302 15.08849542 97795,6917.851,95.437,540.656,538.777,0.0
53014.0,STARLINK-4183,PAYLOAD,2024-04-13 01:19:51,15.08839025,0.0001443,53.2187,326.9445,85.3557,274.76,-0.00042002,-6.966e-05,0.0,0 STARLINK-4183,1 53014U 22076AE  24104.05546241 -.00006966  00000-0 -42002-3 0  9998,2 53014  53.2187 326.9445 0001443  85.3557 274.7600 15.08839025 98430,6917.883,95.438,540.747,538.75,0.0
53014.0,STARLINK-4183,PAYLOAD,2024-04-13 20:24:30,15.08823989,0.0001322,53.2173,323.3748,89.7946,270.3198,-0.00010923,-2.025e-05,0.0,0 STARLINK-4183,1 53014U 22076AE  24104.85035739 -.00002025  00000-0 -10923-3 0  9990,2 53014  53.2173 323.3748 0001322  89.7946 270.3198 15.08823989 98557,6917.929,95.439,540.709,538.88,0.0
53014.0,STARLINK-4183,PAYLOAD,2024-04-14 20:15:18,15.08833043,0.000123,53.2159,318.9163,68.5147,291.5976,0.00030499,4.568e-05,0.0,0 STARLINK-4183,1 53014U 22076AE  24105.84396533  .00004568  00000-0  30499-3 0  9994,2 53014  53.2159 318.9163 0001230  68.5147 291.5976 15.08833043 98706,6917.902,95.438,540.618,538.916,0.0
53014.0,STARLINK-4183,PAYLOAD,2024-04-14 21:50:41,15.08838391,0.0001505,53.2177,318.6187,62.8464,297.2681,0.00037728,5.721e-05,0.0,0 STARLINK-4183,1 53014U 22076AE  24105.91020451  .00005721  00000-0  37728-3 0  9999,2 53014  53.2177 318.6187 0001505  62.8464 297.2681 15.08838391 98249,6917.885,95.438,540.791,538.709,0.0
53014.0,STARLINK-4183,PAYLOAD,2024-04-15 13:44:32,15.08848151,0.0001763,53.2178,315.6462,54.6508,305.4649,0.00042729,6.52e-05,0.0,0 STARLINK-4183,1 53014U 22076AE  24106.57260300  .00006520  00000-0  42729-3 0  9996,2 53014  53.2178 315.6462 0001763  54.6508 305.4649 15.08848151 98349,6917.855,95.437,540.94,538.501,0.0
53014.0,STARLINK-4183,PAYLOAD,2024-04-15 20:06:05,15.08845217,0.0001603,53.2179,314.452,66.7558,293.3603,0.00038785,5.891e-05,0.0,0 STARLINK-4183,1 53014U 22076AE  24106.83756483  .00005891  00000-0  38785-3 0  9994,2 53014  53.2179 314.4520 0001603  66.7558 293.3603 15.08845217 98383,6917.864,95.437,540.838,538.621,0.0
53014.0,STARLINK-4183,PAYLOAD,2024-04-15 23:16:51,15.08846494,0.0001291,53.2174,313.8577,83.9699,276.144,0.00033478,5.045e-05,0.0,0 STARLINK-4183,1 53014U 22076AE  24106.97004239  .00005045  00000-0  33478-3 0  9999,2 53014  53.2174 313.8577 0001291  83.9699 276.1440 15.08846494 98873,6917.861,95.437,540.619,538.832,0.0
53014.0,STARLINK-4183,PAYLOAD,2024-04-16 07:13:46,15.08852949,0.0001654,53.2197,312.3697,100.4834,259.6345,0.00033488,5.047e-05,0.0,0 STARLINK-4183,1 53014U 22076AE  24107.30123818  .00005047  00000-0  33488-3 0  9995,2 53014  53.2197 312.3697 0001654 100.4834 259.6345 15.08852949 98450,6917.841,95.437,540.85,538.562,0.0
53014.0,STARLINK-4183,PAYLOAD,2024-04-16 19:56:51,15.08854743,0.0001489,53.2183,309.9917,96.6789,263.4372,9.6234e-05,1.245e-05,0.0,0 STARLINK-4183,1 53014U 22076AE  24107.83115342  .00001245  00000-0  96234-4 0  9991,2 53014  53.2183 309.9917 0001489  96.6789 263.4372 15.08854743 98539,6917.835,95.437,540.73,538.67,0.0
53014.0,STARLINK-4183,PAYLOAD,2024-04-16 23:07:37,15.08857053,0.0001579,53.2188,309.3948,108.9264,251.1899,0.00013874,1.922e-05,0.0,0 STARLINK-4183,1 53014U 22076AE  24107.96363066  .00001922  00000-0  13874-3 0  9993,2 53014  53.2188 309.3948 0001579 108.9264 251.1899 15.08857053 98554,6917.828,95.436,540.786,538.601,0.0
53014.0,STARLINK-4183,PAYLOAD,2024-04-17 19:47:39,15.08836124,0.0001509,53.2187,305.5317,118.0893,242.0252,-6.6103e-05,-1.34e-05,0.0,0 STARLINK-4183,1 53014U 22076AE  24108.82476121 -.00001340  00000-0 -66103-4 0  9996,2 53014  53.2187 305.5317 0001509 118.0893 242.0252 15.08836124 99159,6917.892,95.438,540.801,538.713,0.0
53014.0,STARLINK-4183,PAYLOAD,2024-04-17 22:58:25,15.08834849,0.0001452,53.2186,304.9379,114.5755,245.5388,-7.7768e-05,-1.525e-05,0.0,0 STARLINK-4183,1 53014U 22076AE  24108.95724251 -.00001525  00000-0 -77768-4 0  9994,2 53014  53.2186 304.9379 0001452 114.5755 245.5388 15.08834849 98704,6917.896,95.438,540.766,538.757,0.0
53014.0,STARLINK-4183,PAYLOAD,2024-04-18 19:38:26,15.08846006,0.0001497,53.2174,301.072,108.9581,251.1573,0.0001129,1.51e-05,0.0,0 STARLINK-4183,1 53014U 22076AE  24109.81836113  .00001510  00000-0  11290-3 0  9990,2 53014  53.2174 301.0720 0001497 108.9581 251.1573 15.08846006 98833,6917.862,95.437,540.763,538.691,0.0
53014.0,STARLINK-4183,PAYLOAD,2024-04-19 13:07:41,15.08847849,0.0001602,53.2176,297.8003,102.2642,257.8529,0.00049511,7.602e-05,0.0,0 STARLINK-4183,1 53014U 22076AE  24110.54700459  .00007602  00000-0  49511-3 0  9990,2 53014  53.2176 297.8003 0001602 102.2642 257.8529 15.08847849 98946,6917.856,95.437,540.83,538.613,0.0
53014.0,STARLINK-4183,PAYLOAD,2024-04-19 19:29:13,15.08858748,0.0001567,53.2175,296.6105,95.5888,264.5283,0.00057964,8.954e-05,0.0,0 STARLINK-4183,1 53014U 22076AE  24110.81196123  .00008954  00000-0  57964-3 0  9999,2 53014  53.2175 296.6105 0001567  95.5888 264.5283 15.08858748 98987,6917.823,95.436,540.772,538.604,0.0
53014.0,STARLINK-4183,PAYLOAD,2024-04-20 12:58:27,15.08851309,0.0001672,53.2177,293.3387,100.9266,259.1915,0.00011801,1.591e-05,0.0,0 STARLINK-4183,1 53014U 22076AE  24111.54059687  .00001591  00000-0  11801-3 0  9993,2 53014  53.2177 293.3387 0001672 100.9266 259.1915 15.08851309 99566,6917.846,95.437,540.867,538.554,0.0
53014.0,STARLINK-4183,PAYLOAD,2024-04-20 17:44:37,15.08832908,0.0001501,53.2174,292.4463,91.1234,268.993,-0.00023216,-3.98e-05,0.0,0 STARLINK-4183,1 53014U 22076AE  24111.73932289 -.00003980  00000-0 -23216-3 0  9991,2 53014  53.2174 292.4463 0001501  91.1234 268.9930 15.08832908 99597,6917.902,95.438,540.805,538.729,0.0
53014.0,STARLINK-4183,PAYLOAD,2024-04-21 19:10:47,15.08840079,0.0001484,53.2177,287.689,84.4039,275.7122,6.2772e-05,7.11e-06,0.0,0 STARLINK-4183,1 53014U 22076AE  24112.79916609  .00000711  00000-0  62772-4 0  9994,2 53014  53.2177 287.6890 0001484  84.4039 275.7122 15.08840079 99753,6917.88,95.438,540.772,538.719,0.0
53014.0,STARLINK-4183,PAYLOAD,2024-04-22 11:04:39,15.08840961,0.0001357,53.2169,284.7172,86.4151,273.6997,0.0003518,5.316e-05,0.0,0 STARLINK-4183,1 53014U 22076AE  24113.46156825  .00005316  00000-0  35180-3 0  9993,2 53014  53.2169 284.7172 0001357  86.4151 273.6997 15.08840961 99387,6917.877,95.437,540.681,538.804,0.0
